{
  "norad_id": 65134,
  "name": "KUIPER-00095",
  "history": [
    {
      "epoch": "2026-03-28T21:40:27.216192Z",
      "apogee_km": 630.150828949204,
      "perigee_km": 628.9860081545312,
      "latitude_deg": -1.1442639354764898e-05,
      "longitude_deg": -90.74797451338995,
      "height_km": 630.7295789288682,
      "semi_major_axis_km": 7007.705418551867,
      "eccentricity": 8.311e-05,
      "inclination_deg": 51.8987,
      "raan_deg": 60.6823,
      "arg_perigee_deg": 135.4857,
      "mean_anomaly_deg": 224.6172,
      "mean_motion_rev_day": 14.79922613
    },
    {
      "epoch": "2026-03-29T04:09:25.620480Z",
      "apogee_km": 630.1500500866014,
      "perigee_km": 628.9615453881061,
      "latitude_deg": -6.325469595008427e-06,
      "longitude_deg": 170.54763549257686,
      "height_km": 630.7218789734571,
      "semi_major_axis_km": 7007.692797737353,
      "eccentricity": 8.48e-05,
      "inclination_deg": 51.8986,
      "raan_deg": 59.4875,
      "arg_perigee_deg": 135.0075,
      "mean_anomaly_deg": 225.0956,
      "mean_motion_rev_day": 14.79926611
    },
    {
      "epoch": "2026-03-30T04:28:04.273248Z",
      "apogee_km": 630.0897184926653,
      "perigee_km": 628.9647080798641,
      "latitude_deg": 8.385571545183155e-06,
      "longitude_deg": 160.40838791398423,
      "height_km": 630.6678648397427,
      "semi_major_axis_km": 7007.664213286264,
      "eccentricity": 8.027e-05,
      "inclination_deg": 51.8985,
      "raan_deg": 55.0077,
      "arg_perigee_deg": 134.5763,
      "mean_anomaly_deg": 225.5265,
      "mean_motion_rev_day": 14.79935666
    },
    {
      "epoch": "2026-03-30T14:11:31.492608Z",
      "apogee_km": 630.0752544938805,
      "perigee_km": 628.9407167707059,
      "latitude_deg": 3.8696219716513596e-05,
      "longitude_deg": 12.353838184197606,
      "height_km": 630.6577677438039,
      "semi_major_axis_km": 7007.644985632292,
      "eccentricity": 8.095e-05,
      "inclination_deg": 51.8986,
      "raan_deg": 53.2159,
      "arg_perigee_deg": 135.401,
      "mean_anomaly_deg": 224.7018,
      "mean_motion_rev_day": 14.79941757
    },
    {
      "epoch": "2026-03-30T20:40:29.572896Z",
      "apogee_km": 630.0629890434548,
      "perigee_km": 628.9285934472082,
      "latitude_deg": 1.357104106920215e-06,
      "longitude_deg": -86.34903096280983,
      "height_km": 630.6486802765916,
      "semi_major_axis_km": 7007.632791245332,
      "eccentricity": 8.094e-05,
      "inclination_deg": 51.8987,
      "raan_deg": 52.0213,
      "arg_perigee_deg": 135.8538,
      "mean_anomaly_deg": 224.2489,
      "mean_motion_rev_day": 14.7994562
    },
    {
      "epoch": "2026-03-31T06:23:56.664384Z",
      "apogee_km": 630.040482001722,
      "perigee_km": 628.9304746011585,
      "latitude_deg": 3.292341411459104e-06,
      "longitude_deg": 125.59673150276106,
      "height_km": 630.6333414488466,
      "semi_major_axis_km": 7007.6224783014395,
      "eccentricity": 7.92e-05,
      "inclination_deg": 51.8985,
      "raan_deg": 50.2293,
      "arg_perigee_deg": 136.4083,
      "mean_anomaly_deg": 223.6942,
      "mean_motion_rev_day": 14.79948887
    },
    {
      "epoch": "2026-04-01T06:42:33.807744Z",
      "apogee_km": 630.0177259162801,
      "perigee_km": 628.8909052327353,
      "latitude_deg": 4.974975356189266e-05,
      "longitude_deg": 115.46331584108451,
      "height_km": 630.6055533786923,
      "semi_major_axis_km": 7007.5913155745075,
      "eccentricity": 8.04e-05,
      "inclination_deg": 51.8985,
      "raan_deg": 45.749,
      "arg_perigee_deg": 136.0122,
      "mean_anomaly_deg": 224.0905,
      "mean_motion_rev_day": 14.79958759
    },
    {
      "epoch": "2026-04-02T13:30:07.788960Z",
      "apogee_km": 629.9336930391082,
      "perigee_km": 628.8571959049887,
      "latitude_deg": 1.0775787659428157e-05,
      "longitude_deg": 6.633384093787272,
      "height_km": 630.5437584454836,
      "semi_major_axis_km": 7007.532444472048,
      "eccentricity": 7.681e-05,
      "inclination_deg": 51.8988,
      "raan_deg": 40.0753,
      "arg_perigee_deg": 138.374,
      "mean_anomaly_deg": 221.7281,
      "mean_motion_rev_day": 14.79977409
    },
    {
      "epoch": "2026-04-03T20:17:45.232224Z",
      "apogee_km": 630.3528306072467,
      "perigee_km": 628.7508729357323,
      "latitude_deg": 4.377857491168802e-05,
      "longitude_deg": -102.21115725357781,
      "height_km": 630.4631498383532,
      "semi_major_axis_km": 7007.68885177149,
      "eccentricity": 0.0001143,
      "inclination_deg": 51.8986,
      "raan_deg": 34.4014,
      "arg_perigee_deg": 101.9715,
      "mean_anomaly_deg": 258.1376,
      "mean_motion_rev_day": 14.79927861
    },
    {
      "epoch": "2026-04-04T18:59:11.287104Z",
      "apogee_km": 630.261360525632,
      "perigee_km": 628.9971594923263,
      "latitude_deg": -9.999050890235453e-06,
      "longitude_deg": -87.68263058711337,
      "height_km": 630.7457146002927,
      "semi_major_axis_km": 7007.766260008979,
      "eccentricity": 9.02e-05,
      "inclination_deg": 51.901,
      "raan_deg": 30.2204,
      "arg_perigee_deg": 125.8887,
      "mean_anomaly_deg": 234.2159,
      "mean_motion_rev_day": 14.7990334
    },
    {
      "epoch": "2026-04-05T12:48:53.165088Z",
      "apogee_km": 630.1578954892448,
      "perigee_km": 629.1081315412212,
      "latitude_deg": 2.864012859298694e-05,
      "longitude_deg": 0.8768245491968677,
      "height_km": 630.7198853625862,
      "semi_major_axis_km": 7007.770013515233,
      "eccentricity": 7.49e-05,
      "inclination_deg": 51.9002,
      "raan_deg": 26.9365,
      "arg_perigee_deg": 130.4949,
      "mean_anomaly_deg": 229.6079,
      "mean_motion_rev_day": 14.79902151
    },
    {
      "epoch": "2026-04-06T05:01:19.606080Z",
      "apogee_km": 630.0086737413721,
      "perigee_km": 629.1751744631392,
      "latitude_deg": 6.266049819350004e-05,
      "longitude_deg": 114.11536693009884,
      "height_km": 630.4172472571291,
      "semi_major_axis_km": 7007.728924102255,
      "eccentricity": 5.947e-05,
      "inclination_deg": 51.8999,
      "raan_deg": 23.9508,
      "arg_perigee_deg": 100.975,
      "mean_anomaly_deg": 259.128,
      "mean_motion_rev_day": 14.79915167
    },
    {
      "epoch": "2026-04-07T03:42:45.543456Z",
      "apogee_km": 630.349122189753,
      "perigee_km": 628.9146319006222,
      "latitude_deg": 2.8387379228064154e-05,
      "longitude_deg": 128.64629809668506,
      "height_km": 630.5376256272211,
      "semi_major_axis_km": 7007.768877045188,
      "eccentricity": 0.00010235,
      "inclination_deg": 51.9,
      "raan_deg": 19.7717,
      "arg_perigee_deg": 102.9136,
      "mean_anomaly_deg": 257.1941,
      "mean_motion_rev_day": 14.79902511
    },
    {
      "epoch": "2026-04-08T04:01:25.779072Z",
      "apogee_km": 630.2754558715314,
      "perigee_km": 628.9623425711352,
      "latitude_deg": 2.0827771094833932e-05,
      "longitude_deg": 118.50181626163041,
      "height_km": 630.4883393082506,
      "semi_major_axis_km": 7007.7558992213335,
      "eccentricity": 9.369e-05,
      "inclination_deg": 51.8993,
      "raan_deg": 15.2933,
      "arg_perigee_deg": 100.8822,
      "mean_anomaly_deg": 259.2246,
      "mean_motion_rev_day": 14.79906622
    },
    {
      "epoch": "2026-04-09T10:49:04.312704Z",
      "apogee_km": 630.1066838946181,
      "perigee_km": 629.0741653358764,
      "latitude_deg": 4.985008512661831e-05,
      "longitude_deg": 9.65071204702893,
      "height_km": 630.4574572159161,
      "semi_major_axis_km": 7007.727424615247,
      "eccentricity": 7.367e-05,
      "inclination_deg": 51.8995,
      "raan_deg": 9.6174,
      "arg_perigee_deg": 103.5847,
      "mean_anomaly_deg": 256.5198,
      "mean_motion_rev_day": 14.79915642
    },
    {
      "epoch": "2026-04-10T11:07:43.497696Z",
      "apogee_km": 630.1084747770428,
      "perigee_km": 629.01106946253,
      "latitude_deg": -2.2712265959753294e-05,
      "longitude_deg": -0.48993060355813534,
      "height_km": 630.4406788559761,
      "semi_major_axis_km": 7007.696772119786,
      "eccentricity": 7.83e-05,
      "inclination_deg": 51.8999,
      "raan_deg": 5.1385,
      "arg_perigee_deg": 104.2574,
      "mean_anomaly_deg": 255.8475,
      "mean_motion_rev_day": 14.79925352
    },
    {
      "epoch": "2026-04-11T16:18:05.910048Z",
      "apogee_km": 630.1202521791711,
      "perigee_km": 628.9513723540849,
      "latitude_deg": 3.1812756204514114e-05,
      "longitude_deg": -84.6565633338002,
      "height_km": 630.4337452138044,
      "semi_major_axis_km": 7007.672812266627,
      "eccentricity": 8.34e-05,
      "inclination_deg": 51.8996,
      "raan_deg": 359.7633,
      "arg_perigee_deg": 105.1008,
      "mean_anomaly_deg": 255.0047,
      "mean_motion_rev_day": 14.79932942
    },
    {
      "epoch": "2026-04-13T02:20:11.366592Z",
      "apogee_km": 630.1092874981168,
      "perigee_km": 628.9142030810945,
      "latitude_deg": 4.0251078212346286e-05,
      "longitude_deg": 117.15184511200553,
      "height_km": 630.4378899882793,
      "semi_major_axis_km": 7007.648745289605,
      "eccentricity": 8.527e-05,
      "inclination_deg": 51.8998,
      "raan_deg": 353.4922,
      "arg_perigee_deg": 107.5777,
      "mean_anomaly_deg": 252.5279,
      "mean_motion_rev_day": 14.79940566
    },
    {
      "epoch": "2026-04-14T20:28:30.878688Z",
      "apogee_km": 630.2789309005739,
      "perigee_km": 628.8227333690547,
      "latitude_deg": 1.114994570257508e-05,
      "longitude_deg": -164.42385327145988,
      "height_km": 630.4734088538245,
      "semi_major_axis_km": 7007.687832134814,
      "eccentricity": 0.0001039,
      "inclination_deg": 51.9021,
      "raan_deg": 345.7284,
      "arg_perigee_deg": 104.0613,
      "mean_anomaly_deg": 256.0465,
      "mean_motion_rev_day": 14.79928184
    }
  ]
}